[{"OBJECT_NAME":"STARLINK-32486","OBJECT_ID":"2024-202K","EPOCH":"2026-03-09T12:22:43.199328","MEAN_MOTION":15.27650668,"ECCENTRICITY":0.00019522,"INCLINATION":43.0127,"RA_OF_ASC_NODE":238.7574,"ARG_OF_PERICENTER":268.3052,"MEAN_ANOMALY":91.7576,"EPHEMERIS_TYPE":0,"CLASSIFICATION_TYPE":"U","NORAD_CAT_ID":61854,"ELEMENT_SET_NO":999,"REV_AT_EPOCH":7531,"BSTAR":-0.0006499397,"MEAN_MOTION_DOT":-0.00018143,"MEAN_MOTION_DDOT":0},{"OBJECT_NAME":"COSMOS 374 DEB","OBJECT_ID":"1970-089CW","EPOCH":"2026-03-09T03:15:05.416704","MEAN_MOTION":14.81622526,"ECCENTRICITY":0.02351408,"INCLINATION":62.872,"RA_OF_ASC_NODE":339.5893,"ARG_OF_PERICENTER":12.2958,"MEAN_ANOMALY":348.3731,"EPHEMERIS_TYPE":0,"CLASSIFICATION_TYPE":"U","NORAD_CAT_ID":14122,"ELEMENT_SET_NO":999,"REV_AT_EPOCH":22578,"BSTAR":0.0042555676,"MEAN_MOTION_DOT":0.00054686,"MEAN_MOTION_DDOT":0}]
